TDRS 11                 
1 39070U 13004A   26094.21303330  .00000080  00000+0  00000+0 0  9999
2 39070   3.4128  29.9365 0004476 356.8492  68.0077  1.00273267 45950
TDRS 12                 
1 39504U 14004A   26094.28807905 -.00000269  00000+0  00000+0 0  9996
2 39504   3.9061  17.8096 0002740 258.5349 338.9430  1.00277817 43530
GPM-CORE                
1 39574U 14009C   26094.28011092  .00022130  00000+0  48031-3 0  9992
2 39574  64.9734 195.7430 0012981 254.8351 105.1354 15.44305318686396
MMS 1                   
1 40482U 15011A   26094.25002315 -.00001255  00000+0  00000+0 0  9997
2 40482  71.1346 349.8029 8386441 165.8179 316.5416  0.28338620  1300
MMS 2                   
1 40483U 15011B   26094.25002315 -.00001255  00000+0  00000+0 0  9998
2 40483  71.1348 349.8051 8387189 165.8239 316.5264  0.28338619  1304
MMS 3                   
1 40484U 15011C   26094.25002315 -.00001255  00000+0  00000+0 0  9999
2 40484  71.1374 349.8097 8386443 165.8182 316.5312  0.28338575  1308
MMS 4                   
1 40485U 15011D   26094.25002315 -.00001255  00000+0  00000+0 0  9990
2 40485  71.1349 349.8050 8385972 165.8256 316.5180  0.28338570  1306
TDRS 13                 
1 42915U 17047A   26094.17394647 -.00000100  00000+0  00000+0 0  9992
2 42915   3.4357   0.8557 0012050  97.1245 145.6556  1.00272422 31608
NOAA 20 (JPSS-1)        
1 43013U 17073A   26094.27348635  .00000137  00000+0  86007-4 0  9993
2 43013  98.7724  34.4110 0002033 103.1408 256.9995 14.19543143433985
